[{"OBJECT_NAME":"DONGPO 10","OBJECT_ID":"2022-167H","EPOCH":"2026-03-09T22:44:56.137344","MEAN_MOTION":15.322785,"ECCENTRICITY":0.00061655,"INCLINATION":97.685,"RA_OF_ASC_NODE":235.0962,"ARG_OF_PERICENTER":106.9526,"MEAN_ANOMALY":253.2392,"EPHEMERIS_TYPE":0,"CLASSIFICATION_TYPE":"U","NORAD_CAT_ID":54689,"ELEMENT_SET_NO":999,"REV_AT_EPOCH":18015,"BSTAR":0.00049390523,"MEAN_MOTION_DOT":0.00015333,"MEAN_MOTION_DDOT":0},{"OBJECT_NAME":"STARLINK-31389","OBJECT_ID":"2024-036R","EPOCH":"2026-03-09T23:40:19.550496","MEAN_MOTION":15.30138848,"ECCENTRICITY":9.254e-5,"INCLINATION":53.1606,"RA_OF_ASC_NODE":77.1028,"ARG_OF_PERICENTER":118.9412,"MEAN_ANOMALY":241.1682,"EPHEMERIS_TYPE":0,"CLASSIFICATION_TYPE":"U","NORAD_CAT_ID":59013,"ELEMENT_SET_NO":999,"REV_AT_EPOCH":11537,"BSTAR":0.00043832189,"MEAN_MOTION_DOT":0.0001262,"MEAN_MOTION_DDOT":0}]
